satname,norad_id,inclination_deg,eccentricity,mean_motion_rev_per_day,perigee_km,apogee_km,l1,l2
STARLINK-1422,45696,53.1566,0.0002588,15.34708704,460.0156886299883,463.55603270266784,1 45696U 20035AR  26156.27546563  .00038294  00000+0  11276-2 0  9992,2 45696  53.1566   1.8048 0002588 154.3043 205.8088 15.34708704332392
STARLINK-1351,45697,53.0438,0.000358,15.66132575,367.56762624392104,372.399280488532,1 45697U 20035AS  26155.72557463  .00050005  00000+0  47997-3 0  9997,2 45697  53.0438 317.7074 0003580 140.0395 220.0884 15.66132575332950
STARLINK-1400,45700,53.0432,0.0001808,15.64982912,372.0672470946138,374.5085623401601,1 45700U 20035AV  26156.82290096  .00058057  00000+0  58204-3 0  9998,2 45700  53.0432 314.8581 0001808  60.2433 299.8761 15.64982912333086
STARLINK-1403,45701,53.1558,0.0001788,15.33814684,463.2200225269871,465.6669293051755,1 45701U 20035AW  26156.80787877  .00055656  00000+0  16769-2 0  9996,2 45701  53.1558 346.8418 0001788 185.6018 174.4965 15.33814684332640
STARLINK-1407,45703,53.0268,0.0006015,15.73596656,344.58137838664334,352.6736761129241,1 45703U 20035AY  26156.50523251  .00069611  00000+0  48744-3 0  9994,2 45703  53.0268 243.1318 0006015  22.3487 337.7792 15.73596656334062
STARLINK-1411,45706,53.029,0.0009942,15.91546075,291.3184157576861,304.5931586557681,1 45706U 20035BB  26156.91668980  .00438935  84809-4  13266-2 0  9994,2 45706  53.0290 262.6502 0009942 336.3519 109.2249 15.91546075  6006
STARLINK-1423,45710,53.0436,0.0005547,15.68918208,358.25475850591465,365.73225929248747,1 45710U 20035BF  26156.69595322  .00061831  00000+0  52796-3 0  9998,2 45710  53.0436 311.9903 0005547  82.4556 277.7090 15.68918208333107
STARLINK-1433,45711,53.0436,0.0005282,15.68496525,359.64071495789176,366.76226493867216,1 45711U 20035BG  26156.80824902  .00072997  00000+0  63246-3 0  9998,2 45711  53.0436 310.0290 0005282  95.1806 264.9812 15.68496525333149
STARLINK-1434,45712,53.0483,0.0001096,15.34173389,462.6270288409123,464.12668867875254,1 45712U 20035BH  26156.19760998  .00036027  00000+0  10799-2 0  9993,2 45712  53.0483 332.3001 0001096  85.3399 274.7727 15.34173389332793
STARLINK-1465,45731,53.0444,0.0001391,15.681807,363.16873164136996,365.0444238046912,1 45731U 20038B   26156.91668980  .00110639  00000+0  96459-3 0  9995,2 45731  53.0444 155.0743 0001391  87.8147  93.9080 15.68180700  5950
STARLINK-1471,45735,53.0444,0.0002971,15.53380873,404.84749583533903,408.8791430251449,1 45735U 20038F   26156.07613601  .00026727  00000+0  42131-3 0  9998,2 45735  53.0444  81.8937 0002971 108.4337 251.6996 15.53380873331094
STARLINK-1480,45741,53.0466,0.0006769,15.64965332,368.7683921914895,377.9085396772707,1 45741U 20038M   26155.26924964  .00048294  00000+0  48555-3 0  9991,2 45741  53.0466 156.8184 0006769  20.9223 339.2068 15.64965332329971
STARLINK-1500,45744,53.0338,0.0001948,15.390936,447.45845123144227,450.11822134246086,1 45744U 20038Q   26156.65343704  .00025685  00000+0  66115-3 0  9996,2 45744  53.0338 138.6995 0001948 106.6975 253.4241 15.39093600330345
STARLINK-1504,45746,53.0199,0.0003378,15.58897033,388.56147794847675,393.13460424224104,1 45746U 20038S   26156.48441948  .00035352  00000+0  45222-3 0  9996,2 45746  53.0199  76.7527 0003378  97.0951 263.0444 15.58897033331189
STARLINK-1506,45747,53.0735,0.0002301,15.28268809,479.40904430355477,482.5656133196735,1 45747U 20038T   26156.27946847  .00007583  00000+0  28403-3 0  9999,2 45747  53.0735 156.4952 0002301 154.5885 205.5228 15.28268809330072
STARLINK-1464,45751,53.0458,0.0004515,15.54022461,401.93311963193446,408.0582884636897,1 45751U 20038X   26156.68319604  .00029047  00000+0  44656-3 0  9991,2 45751  53.0458 142.7865 0004515  34.0138 326.1160 15.54022461330292
STARLINK-1477,45754,53.0485,0.0001792,15.1878658,508.2724519428866,510.74098345130915,1 45754U 20038AA  26156.34502039  .00017007  00000+0  82093-3 0  9993,2 45754  53.0485 173.1633 0001792 349.4203  10.6753 15.18786580329836
STARLINK-1478,45755,53.0444,0.000482,15.68112829,361.05126616576126,367.5509765147335,1 45755U 20038AB  26156.21072170  .00051990  00000+0  46025-3 0  9992,2 45755  53.0444 130.0910 0004820  66.4696 293.6826 15.68112829330413
STARLINK-1493,45759,53.0455,0.0007002,15.64830113,368.9997407184492,378.45505161884466,1 45759U 20038AF  26156.80285729  .00060628  00000+0  61045-3 0  9994,2 45759  53.0455 136.8084 0007002  23.9964 336.1375 15.64830113330372
STARLINK-1494,45760,53.036,0.0002891,16.09205929,247.10662098668854,250.9384446285576,1 45760U 20038AG  26157.00442280  .00768165  32853-3  84012-3 0  9991,2 45760  53.0360  64.1038 0002891 213.9345 146.1504 16.09205929331416
STARLINK-1502,45764,53.0437,0.0005863,15.61311508,379.90312379176976,387.83225048790973,1 45764U 20038AL  26156.65835265  .00099665  00000+0  11424-2 0  9997,2 45764  53.0437 141.2731 0005863 356.5862   3.5110 15.61311508330317
STARLINK-1470,45772,53.0442,0.0004408,15.35091704,457.63358568333115,463.6626586470329,1 45772U 20038AU  26156.63182708  .00045742  00000+0  13269-2 0  9997,2 45772  53.0442 123.8132 0004408  31.2307 328.8955 15.35091704330558
STARLINK-1482,45773,53.1562,0.0005264,15.37623206,449.5439473941906,456.73591574774855,1 45773U 20038AV  26156.64553802  .00054295  00000+0  14485-2 0  9990,2 45773  53.1562 140.1847 0005264  23.5858 336.5386 15.37623206330345
STARLINK-1496,45780,53.0449,2.53e-05,15.68375721,363.3770882133422,363.71821745677516,1 45780U 20038BC  26156.57807959  .00074231  00000+0  64653-3 0  9990,2 45780  53.0449 112.3050 0000253  99.7229 260.3815 15.68375721330692
STARLINK-1513,45786,53.1567,9.87e-05,15.31701089,470.0607651362152,471.4127328142622,1 45786U 20038BJ  26156.68401716  .00001168  00000+0  49385-4 0  9994,2 45786  53.1567 141.8734 0000987  91.7135 268.3979 15.31701089330327
STARLINK-1522,46027,53.0633,0.0002895,15.13027132,524.9754959036891,528.973555477065,1 46027U 20055A   26156.51609455  .00027856  00000+0  15692-2 0  9998,2 46027  53.0633  89.4252 0002895  50.0717 310.0529 15.13027132322164
STARLINK-1523,46028,53.1611,0.0001043,15.30425801,473.82621691902204,475.25568553964786,1 46028U 20055B   26156.04355087  .00012298  00000+0  42370-3 0  9994,2 46028  53.1611  80.9541 0001043 119.6616 240.4489 15.30425801322270
STARLINK-1526,46029,53.158,0.0001269,15.30194286,474.3624379038047,476.1018229891115,1 46029U 20055C   26156.49494874  .00004140  00000+0  15184-3 0  9992,2 46029  53.1580  78.8734 0001269  98.2322 261.8822 15.30194286322337
STARLINK-1555,46032,53.1576,9.72e-05,15.30205019,474.5339392664373,475.8662279954942,1 46032U 20055F   26156.47913786  .00003439  00000+0  12816-3 0  9991,2 46032  53.1576  78.9234 0000972  86.2230 273.8882 15.30205019322333
STARLINK-1556,46033,53.1596,9.69e-05,15.30201945,474.54517275327635,475.8733512588533,1 46033U 20055G   26156.07039652  .00004225  00000+0  15467-3 0  9998,2 46033  53.1596  80.8393 0000969  84.3335 275.7776 15.30201945322242
STARLINK-1557,46034,53.1586,0.0001024,15.30204233,474.5006485157828,475.9042124311445,1 46034U 20055H   26156.07355467  .00003809  00000+0  14063-3 0  9992,2 46034  53.1586  80.8226 0001024  88.6631 271.4487 15.30204233322241
STARLINK-1558,46035,53.1581,0.0001189,15.30176369,474.47075628335006,476.1005001843432,1 46035U 20055J   26156.08092761  .00007593  00000+0  26842-3 0  9991,2 46035  53.1581  80.7870 0001189  88.5716 271.5421 15.30176369322276
STARLINK-1560,46036,53.1602,0.0001132,15.30205371,474.42323498946735,475.9748302672542,1 46036U 20055K   26156.06723102  .00002944  00000+0  11147-3 0  9997,2 46036  53.1602  80.8579 0001132  81.1092 279.0037 15.30205371322274
STARLINK-1569,46039,53.1587,0.0001408,15.3020114,474.24671409480925,476.1766170790388,1 46039U 20055N   26156.80255633 -.00002392  00000+0 -68657-4 0  9999,2 46039  53.1587  77.4270 0001408 105.6973 254.4183 15.30201140322375
STARLINK-1582,46043,53.1606,0.0001485,15.31701477,469.7185347890754,471.75264994900954,1 46043U 20055S   26156.49554148 -.00004786  00000+0 -14256-3 0  9996,2 46043  53.1606  78.2840 0001485  75.6632 284.4534 15.31701477322335
STARLINK-1591,46045,53.1614,0.000123,15.30205137,474.35677088823195,476.0426917241339,1 46045U 20055U   26156.05143047  .00003513  00000+0  13064-3 0  9993,2 46045  53.1614  80.9178 0001230 101.7284 258.3855 15.30205137322249
STARLINK-1524,46047,53.1597,0.0001376,15.31698039,469.80343459193864,471.68824714974653,1 46047U 20055W   26156.79112856  .00002864  00000+0  10404-3 0  9993,2 46047  53.1597  64.2048 0001376  88.5597 271.5562 15.31698039322567
STARLINK-1527,46048,53.159,0.0001289,15.31698024,469.86306458120544,471.62870658910924,1 46048U 20055X   26156.78646014 -.00002288  00000+0 -61999-4 0  9999,2 46048  53.1590  64.2086 0001289  91.7419 268.3730 15.31698024322537
STARLINK-1540,46051,53.1589,0.0001137,15.31656507,470.0909166074589,471.64838071936447,1 46051U 20055AA  26156.66668980  .00061485  00000+0  19795-2 0  9993,2 46051  53.1589  64.9757 0001137  97.6472  38.6692 15.31656507  5822
STARLINK-1541,46052,53.158,0.0003284,15.83399471,318.63529036500495,323.0351753275372,1 46052U 20055AB  26156.91668980  .00179073  00000+0  79294-3 0  9996,2 46052  53.1580  48.3729 0003284 219.6652  92.7949 15.83399471  6042
STARLINK-1543,46053,53.1605,0.0001398,15.31714543,469.7391766990304,471.6541105857923,1 46053U 20055AC  26156.02675919  .00009141  00000+0  30584-3 0  9996,2 46053  53.1605  67.7596 0001398  64.2379 295.8767 15.31714543322456
STARLINK-1548,46054,53.1601,9.55e-05,15.31708901,470.05939671719443,471.3675271554248,1 46054U 20055AD  26156.04075221  .00002394  00000+0  88848-4 0  9999,2 46054  53.1601  67.7682 0000955  76.8326 283.2782 15.31708901322457
STARLINK-1554,46055,53.1597,9.93e-05,15.31707441,470.0377227986028,471.3979053646799,1 46055U 20055AE  26156.47885742  .00001884  00000+0  72450-4 0  9999,2 46055  53.1597  65.6717 0000993  84.6339 275.4776 15.31707441322523
